{
    "bodies": [
        {
            "name": "TNO-554",
            "mass": 0,
            "semi_major_axis": 339.35546875,
            "eccentricity": 0.054101562499999985,
            "inclination": 0.23606259902462368,
            "longitude_of_ascending_node": 5.294712649731108,
            "argument_of_perihelion": 4.75986122242847,
            "mean_anomaly": 3.4561989487710547
        },
        {
            "name": "TNO-555",
            "mass": 0,
            "semi_major_axis": 339.697265625,
            "eccentricity": 0.054199218749999986,
            "inclination": 0.23648870479903636,
            "longitude_of_ascending_node": 5.595517370498179,
            "argument_of_perihelion": 1.7084380771643901,
            "mean_anomaly": 1.7126809724594494
        },
        {
            "name": "TNO-556",
            "mass": 0,
            "semi_major_axis": 340.0390625,
            "eccentricity": 0.05429687499999999,
            "inclination": 0.23691481057344904,
            "longitude_of_ascending_node": 0.06832263143529971,
            "argument_of_perihelion": 3.923430488187319,
            "mean_anomaly": 0.15420233777156947
        },
        {
            "name": "TNO-557",
            "mass": 0,
            "semi_major_axis": 340.380859375,
            "eccentricity": 0.05439453124999999,
            "inclination": 0.2373409163478617,
            "longitude_of_ascending_node": 2.222829409633759,
            "argument_of_perihelion": 0.21158481515455382,
            "mean_anomaly": 4.591443343112629
        },
        {
            "name": "TNO-558",
            "mass": 0,
            "semi_major_axis": 340.72265625,
            "eccentricity": 0.05449218749999999,
            "inclination": 0.23776702212227438,
            "longitude_of_ascending_node": 0.19303669563619263,
            "argument_of_perihelion": 2.362377135586391,
            "mean_anomaly": 1.3079191837764579
        },
        {
            "name": "TNO-559",
            "mass": 0,
            "semi_major_axis": 341.064453125,
            "eccentricity": 0.054589843749999985,
            "inclination": 0.23819312789668706,
            "longitude_of_ascending_node": 2.7114610066635967,
            "argument_of_perihelion": 5.30561537973912,
            "mean_anomaly": 4.484320154570268
        },
        {
            "name": "TNO-560",
            "mass": 0,
            "semi_major_axis": 341.40625,
            "eccentricity": 0.054687499999999986,
            "inclination": 0.23861923367109975,
            "longitude_of_ascending_node": 5.667337071470873,
            "argument_of_perihelion": 2.4895334719401436,
            "mean_anomaly": 0.349103800143491
        },
        {
            "name": "TNO-561",
            "mass": 0,
            "semi_major_axis": 341.748046875,
            "eccentricity": 0.05478515624999999,
            "inclination": 0.23904533944551243,
            "longitude_of_ascending_node": 5.5004184749173595,
            "argument_of_perihelion": 2.302376013099452,
            "mean_anomaly": 2.4702908923630456
        },
        {
            "name": "TNO-562",
            "mass": 0,
            "semi_major_axis": 342.08984375,
            "eccentricity": 0.05488281249999999,
            "inclination": 0.2394714452199251,
            "longitude_of_ascending_node": 4.185243951123694,
            "argument_of_perihelion": 4.199615113932494,
            "mean_anomaly": 4.581495115579424
        },
        {
            "name": "TNO-563",
            "mass": 0,
            "semi_major_axis": 342.431640625,
            "eccentricity": 0.05498046874999999,
            "inclination": 0.23989755099433777,
            "longitude_of_ascending_node": 3.3313937006167422,
            "argument_of_perihelion": 0.015368796749376806,
            "mean_anomaly": 3.4622680730561366
        },
        {
            "name": "TNO-564",
            "mass": 0,
            "semi_major_axis": 342.7734375,
            "eccentricity": 0.055078124999999985,
            "inclination": 0.24032365676875045,
            "longitude_of_ascending_node": 5.528800355544452,
            "argument_of_perihelion": 2.1323725499083177,
            "mean_anomaly": 3.1081026267619674
        },
        {
            "name": "TNO-565",
            "mass": 0,
            "semi_major_axis": 343.115234375,
            "eccentricity": 0.055175781249999986,
            "inclination": 0.24074976254316313,
            "longitude_of_ascending_node": 4.953293015240563,
            "argument_of_perihelion": 0.6800901625786453,
            "mean_anomaly": 5.370799259474021
        },
        {
            "name": "TNO-566",
            "mass": 0,
            "semi_major_axis": 343.45703125,
            "eccentricity": 0.05527343749999999,
            "inclination": 0.24117586831757581,
            "longitude_of_ascending_node": 5.831674393577692,
            "argument_of_perihelion": 5.068362013366289,
            "mean_anomaly": 3.6578396964539985
        },
        {
            "name": "TNO-567",
            "mass": 0,
            "semi_major_axis": 343.798828125,
            "eccentricity": 0.05537109374999999,
            "inclination": 0.2416019740919885,
            "longitude_of_ascending_node": 2.5552903941180842,
            "argument_of_perihelion": 2.309109998938044,
            "mean_anomaly": 4.10583559588023
        },
        {
            "name": "TNO-568",
            "mass": 0,
            "semi_major_axis": 344.140625,
            "eccentricity": 0.05546874999999999,
            "inclination": 0.24202807986640115,
            "longitude_of_ascending_node": 0.347374860265182,
            "argument_of_perihelion": 5.049400049860164,
            "mean_anomaly": 0.3760540131352699
        },
        {
            "name": "TNO-569",
            "mass": 0,
            "semi_major_axis": 344.482421875,
            "eccentricity": 0.055566406249999985,
            "inclination": 0.24245418564081384,
            "longitude_of_ascending_node": 0.9117081050019882,
            "argument_of_perihelion": 5.374634404326211,
            "mean_anomaly": 0.10167215790347216
        },
        {
            "name": "TNO-570",
            "mass": 0,
            "semi_major_axis": 344.82421875,
            "eccentricity": 0.055664062499999986,
            "inclination": 0.24288029141522652,
            "longitude_of_ascending_node": 2.1166863596914647,
            "argument_of_perihelion": 1.5801409848292802,
            "mean_anomaly": 1.1395948822192077
        },
        {
            "name": "TNO-571",
            "mass": 0,
            "semi_major_axis": 345.166015625,
            "eccentricity": 0.05576171874999999,
            "inclination": 0.2433063971896392,
            "longitude_of_ascending_node": 2.1882029838625936,
            "argument_of_perihelion": 0.49663475236329313,
            "mean_anomaly": 0.006818533036534151
        },
        {
            "name": "TNO-572",
            "mass": 0,
            "semi_major_axis": 345.5078125,
            "eccentricity": 0.05585937499999999,
            "inclination": 0.24373250296405188,
            "longitude_of_ascending_node": 4.9051000279569115,
            "argument_of_perihelion": 0.7442394196504412,
            "mean_anomaly": 3.0008503159466344
        },
        {
            "name": "TNO-573",
            "mass": 0,
            "semi_major_axis": 345.849609375,
            "eccentricity": 0.05595703124999999,
            "inclination": 0.24415860873846457,
            "longitude_of_ascending_node": 2.0231013314965565,
            "argument_of_perihelion": 4.449350179708059,
            "mean_anomaly": 1.690259619833666
        },
        {
            "name": "TNO-574",
            "mass": 0,
            "semi_major_axis": 346.19140625,
            "eccentricity": 0.056054687499999985,
            "inclination": 0.24458471451287722,
            "longitude_of_ascending_node": 6.136094516743549,
            "argument_of_perihelion": 0.5560414571161281,
            "mean_anomaly": 3.762943564060878
        },
        {
            "name": "TNO-575",
            "mass": 0,
            "semi_major_axis": 346.533203125,
            "eccentricity": 0.056152343749999986,
            "inclination": 0.2450108202872899,
            "longitude_of_ascending_node": 2.024536139177053,
            "argument_of_perihelion": 0.02247221888819828,
            "mean_anomaly": 1.2292595346499589
        },
        {
            "name": "TNO-576",
            "mass": 0,
            "semi_major_axis": 346.875,
            "eccentricity": 0.05624999999999999,
            "inclination": 0.2454369260617026,
            "longitude_of_ascending_node": 2.984534837321799,
            "argument_of_perihelion": 3.1305739451582917,
            "mean_anomaly": 4.947935366765709
        },
        {
            "name": "TNO-577",
            "mass": 0,
            "semi_major_axis": 347.216796875,
            "eccentricity": 0.05634765624999999,
            "inclination": 0.24586303183611527,
            "longitude_of_ascending_node": 4.8358867459763735,
            "argument_of_perihelion": 1.4735697240976346,
            "mean_anomaly": 3.937168524828999
        },
        {
            "name": "TNO-578",
            "mass": 0,
            "semi_major_axis": 347.55859375,
            "eccentricity": 0.05644531249999999,
            "inclination": 0.24628913761052795,
            "longitude_of_ascending_node": 5.04001133812699,
            "argument_of_perihelion": 4.172934907239127,
            "mean_anomaly": 2.899840358488565
        }
    ]
}